AOR-E (EGNOS/PRN 120)   
1 24307U 96053A   09120.06990615 -.00000131  00000-0  10000-3 0  8064
2 24307   0.0931 357.8402 0005036  32.5184 197.4628  1.00271619 46304
IOR-W (EGNOS/PRN 126)   
1 25153U 98006B   09121.77189948  .00000127  00000-0  00000+0 0  5406
2 25153   0.4916   8.1700 0003640  28.6711 125.5777  1.00269819 41209
ARTEMIS (EGNOS/PRN 124) 
1 26863U 01029A   09120.95490782  .00000118  00000-0  10000-3 0  6792
2 26863   7.3372  69.7820 0003514 346.0795 168.3292  1.00268379 29679
MTSAT-1R (MSAS/PRN 129) 
1 28622U 05006A   09121.38422461 -.00000292  00000-0  10000-3 0  1141
2 28622   0.0586  54.9038 0002240 193.6586 249.2674  1.00269366 15289
ANIK F1R (WAAS/PRN 138) 
1 28868U 05036A   09121.42132307 -.00000086  00000-0  10000-3 0  6706
2 28868   0.0085 316.0348 0001102 125.5454 182.2725  1.00271669 13421
GALAXY 15 (WAAS/PRN 135)
1 28884U 05041A   09121.16000647  .00000067  00000-0  10000-3 0  6182
2 28884   0.0328  42.1854 0002165 350.7552 110.8757  1.00272872 13013
MTSAT-2 (MSAS/PRN 137)  
1 28937U 06004A   09121.61149677 -.00000255  00000-0  10000-3 0  5660
2 28937   0.0078 269.6985 0003196 101.8421 213.2606  1.00273282 11767
